<?xml version="1.0" encoding="UTF-8"?>
<ndm xmlns:xsi="http://www.w3.org/2001/XMLSchema-instance" xsi:noNamespaceSchemaLocation="https://sanaregistry.org/r/ndmxml_unqualified/ndmxml-2.0.0-master-2.0.xsd">
<omm id="CCSDS_OMM_VERS" version="2.0">
<header><CREATION_DATE/><ORIGINATOR/></header><body><segment><metadata><OBJECT_NAME>ONEWEB-0601</OBJECT_NAME><OBJECT_ID>2022-166Z</OBJECT_ID><CENTER_NAME>EARTH</CENTER_NAME><REF_FRAME>TEME</REF_FRAME><TIME_SYSTEM>UTC</TIME_SYSTEM><MEAN_ELEMENT_THEORY>SGP4</MEAN_ELEMENT_THEORY></metadata><data><meanElements><EPOCH>2024-04-07T13:04:18.455520</EPOCH><MEAN_MOTION>13.21826270</MEAN_MOTION><ECCENTRICITY>.0002461</ECCENTRICITY><INCLINATION>87.9300</INCLINATION><RA_OF_ASC_NODE>43.3278</RA_OF_ASC_NODE><ARG_OF_PERICENTER>73.9053</ARG_OF_PERICENTER><MEAN_ANOMALY>286.2351</MEAN_ANOMALY></meanElements><tleParameters><EPHEMERIS_TYPE>0</EPHEMERIS_TYPE><CLASSIFICATION_TYPE>U</CLASSIFICATION_TYPE><NORAD_CAT_ID>54665</NORAD_CAT_ID><ELEMENT_SET_NO>999</ELEMENT_SET_NO><REV_AT_EPOCH>6593</REV_AT_EPOCH><BSTAR>.18208E-3</BSTAR><MEAN_MOTION_DOT>.88E-6</MEAN_MOTION_DOT><MEAN_MOTION_DDOT>0</MEAN_MOTION_DDOT></tleParameters></data></segment></body></omm>
<omm id="CCSDS_OMM_VERS" version="2.0">
<header><CREATION_DATE/><ORIGINATOR/></header><body><segment><metadata><OBJECT_NAME>ONEWEB-0602</OBJECT_NAME><OBJECT_ID>2022-166AA</OBJECT_ID><CENTER_NAME>EARTH</CENTER_NAME><REF_FRAME>TEME</REF_FRAME><TIME_SYSTEM>UTC</TIME_SYSTEM><MEAN_ELEMENT_THEORY>SGP4</MEAN_ELEMENT_THEORY></metadata><data><meanElements><EPOCH>2024-04-07T21:19:20.822016</EPOCH><MEAN_MOTION>13.21825316</MEAN_MOTION><ECCENTRICITY>.000216</ECCENTRICITY><INCLINATION>87.9299</INCLINATION><RA_OF_ASC_NODE>43.2642</RA_OF_ASC_NODE><ARG_OF_PERICENTER>72.4678</ARG_OF_PERICENTER><MEAN_ANOMALY>287.6691</MEAN_ANOMALY></meanElements><tleParameters><EPHEMERIS_TYPE>0</EPHEMERIS_TYPE><CLASSIFICATION_TYPE>U</CLASSIFICATION_TYPE><NORAD_CAT_ID>54666</NORAD_CAT_ID><ELEMENT_SET_NO>999</ELEMENT_SET_NO><REV_AT_EPOCH>6629</REV_AT_EPOCH><BSTAR>.95953E-4</BSTAR><MEAN_MOTION_DOT>.53E-6</MEAN_MOTION_DOT><MEAN_MOTION_DDOT>0</MEAN_MOTION_DDOT></tleParameters></data></segment></body></omm>
<omm id="CCSDS_OMM_VERS" version="2.0">
<header><CREATION_DATE/><ORIGINATOR/></header><body><segment><metadata><OBJECT_NAME>ONEWEB-0603</OBJECT_NAME><OBJECT_ID>2022-166AB</OBJECT_ID><CENTER_NAME>EARTH</CENTER_NAME><REF_FRAME>TEME</REF_FRAME><TIME_SYSTEM>UTC</TIME_SYSTEM><MEAN_ELEMENT_THEORY>SGP4</MEAN_ELEMENT_THEORY></metadata><data><meanElements><EPOCH>2024-04-07T08:43:09.494112</EPOCH><MEAN_MOTION>13.21826322</MEAN_MOTION><ECCENTRICITY>.0002275</ECCENTRICITY><INCLINATION>87.9300</INCLINATION><RA_OF_ASC_NODE>43.3685</RA_OF_ASC_NODE><ARG_OF_PERICENTER>71.2702</ARG_OF_PERICENTER><MEAN_ANOMALY>288.8678</MEAN_ANOMALY></meanElements><tleParameters><EPHEMERIS_TYPE>0</EPHEMERIS_TYPE><CLASSIFICATION_TYPE>U</CLASSIFICATION_TYPE><NORAD_CAT_ID>54667</NORAD_CAT_ID><ELEMENT_SET_NO>999</ELEMENT_SET_NO><REV_AT_EPOCH>6568</REV_AT_EPOCH><BSTAR>.19531E-3</BSTAR><MEAN_MOTION_DOT>.94E-6</MEAN_MOTION_DOT><MEAN_MOTION_DDOT>0</MEAN_MOTION_DDOT></tleParameters></data></segment></body></omm>
<omm id="CCSDS_OMM_VERS" version="2.0">
<header><CREATION_DATE/><ORIGINATOR/></header><body><segment><metadata><OBJECT_NAME>ONEWEB-0604</OBJECT_NAME><OBJECT_ID>2022-166AC</OBJECT_ID><CENTER_NAME>EARTH</CENTER_NAME><REF_FRAME>TEME</REF_FRAME><TIME_SYSTEM>UTC</TIME_SYSTEM><MEAN_ELEMENT_THEORY>SGP4</MEAN_ELEMENT_THEORY></metadata><data><meanElements><EPOCH>2024-04-07T21:07:59.898432</EPOCH><MEAN_MOTION>13.21824750</MEAN_MOTION><ECCENTRICITY>.0001754</ECCENTRICITY><INCLINATION>87.9295</INCLINATION><RA_OF_ASC_NODE>43.2506</RA_OF_ASC_NODE><ARG_OF_PERICENTER>71.0362</ARG_OF_PERICENTER><MEAN_ANOMALY>289.0962</MEAN_ANOMALY></meanElements><tleParameters><EPHEMERIS_TYPE>0</EPHEMERIS_TYPE><CLASSIFICATION_TYPE>U</CLASSIFICATION_TYPE><NORAD_CAT_ID>54668</NORAD_CAT_ID><ELEMENT_SET_NO>999</ELEMENT_SET_NO><REV_AT_EPOCH>6618</REV_AT_EPOCH><BSTAR>.78235E-4</BSTAR><MEAN_MOTION_DOT>.45E-6</MEAN_MOTION_DOT><MEAN_MOTION_DDOT>0</MEAN_MOTION_DDOT></tleParameters></data></segment></body></omm>
<omm id="CCSDS_OMM_VERS" version="2.0">
<header><CREATION_DATE/><ORIGINATOR/></header><body><segment><metadata><OBJECT_NAME>ONEWEB-0605</OBJECT_NAME><OBJECT_ID>2022-166AD</OBJECT_ID><CENTER_NAME>EARTH</CENTER_NAME><REF_FRAME>TEME</REF_FRAME><TIME_SYSTEM>UTC</TIME_SYSTEM><MEAN_ELEMENT_THEORY>SGP4</MEAN_ELEMENT_THEORY></metadata><data><meanElements><EPOCH>2024-04-07T20:58:55.638912</EPOCH><MEAN_MOTION>13.21825724</MEAN_MOTION><ECCENTRICITY>.0002637</ECCENTRICITY><INCLINATION>87.9291</INCLINATION><RA_OF_ASC_NODE>43.2852</RA_OF_ASC_NODE><ARG_OF_PERICENTER>75.4070</ARG_OF_PERICENTER><MEAN_ANOMALY>284.7356</MEAN_ANOMALY></meanElements><tleParameters><EPHEMERIS_TYPE>0</EPHEMERIS_TYPE><CLASSIFICATION_TYPE>U</CLASSIFICATION_TYPE><NORAD_CAT_ID>54669</NORAD_CAT_ID><ELEMENT_SET_NO>999</ELEMENT_SET_NO><REV_AT_EPOCH>6625</REV_AT_EPOCH><BSTAR>.2371E-3</BSTAR><MEAN_MOTION_DOT>.111E-5</MEAN_MOTION_DOT><MEAN_MOTION_DDOT>0</MEAN_MOTION_DDOT></tleParameters></data></segment></body></omm>
<omm id="CCSDS_OMM_VERS" version="2.0">
<header><CREATION_DATE/><ORIGINATOR/></header><body><segment><metadata><OBJECT_NAME>ONEWEB-0606</OBJECT_NAME><OBJECT_ID>2022-166AE</OBJECT_ID><CENTER_NAME>EARTH</CENTER_NAME><REF_FRAME>TEME</REF_FRAME><TIME_SYSTEM>UTC</TIME_SYSTEM><MEAN_ELEMENT_THEORY>SGP4</MEAN_ELEMENT_THEORY></metadata><data><meanElements><EPOCH>2024-04-07T21:30:41.779296</EPOCH><MEAN_MOTION>13.21824208</MEAN_MOTION><ECCENTRICITY>.000181</ECCENTRICITY><INCLINATION>87.9299</INCLINATION><RA_OF_ASC_NODE>43.2671</RA_OF_ASC_NODE><ARG_OF_PERICENTER>84.7694</ARG_OF_PERICENTER><MEAN_ANOMALY>275.3646</MEAN_ANOMALY></meanElements><tleParameters><EPHEMERIS_TYPE>0</EPHEMERIS_TYPE><CLASSIFICATION_TYPE>U</CLASSIFICATION_TYPE><NORAD_CAT_ID>54670</NORAD_CAT_ID><ELEMENT_SET_NO>999</ELEMENT_SET_NO><REV_AT_EPOCH>6630</REV_AT_EPOCH><BSTAR>-.13105E-3</BSTAR><MEAN_MOTION_DOT>-.41E-6</MEAN_MOTION_DOT><MEAN_MOTION_DDOT>0</MEAN_MOTION_DDOT></tleParameters></data></segment></body></omm>
<omm id="CCSDS_OMM_VERS" version="2.0">
<header><CREATION_DATE/><ORIGINATOR/></header><body><segment><metadata><OBJECT_NAME>ONEWEB-0607</OBJECT_NAME><OBJECT_ID>2022-166AF</OBJECT_ID><CENTER_NAME>EARTH</CENTER_NAME><REF_FRAME>TEME</REF_FRAME><TIME_SYSTEM>UTC</TIME_SYSTEM><MEAN_ELEMENT_THEORY>SGP4</MEAN_ELEMENT_THEORY></metadata><data><meanElements><EPOCH>2024-04-07T09:49:00.607584</EPOCH><MEAN_MOTION>13.21824674</MEAN_MOTION><ECCENTRICITY>.0002145</ECCENTRICITY><INCLINATION>87.9294</INCLINATION><RA_OF_ASC_NODE>43.3439</RA_OF_ASC_NODE><ARG_OF_PERICENTER>72.5012</ARG_OF_PERICENTER><MEAN_ANOMALY>287.6356</MEAN_ANOMALY></meanElements><tleParameters><EPHEMERIS_TYPE>0</EPHEMERIS_TYPE><CLASSIFICATION_TYPE>U</CLASSIFICATION_TYPE><NORAD_CAT_ID>54671</NORAD_CAT_ID><ELEMENT_SET_NO>999</ELEMENT_SET_NO><REV_AT_EPOCH>6575</REV_AT_EPOCH><BSTAR>.28343E-3</BSTAR><MEAN_MOTION_DOT>.13E-5</MEAN_MOTION_DOT><MEAN_MOTION_DDOT>0</MEAN_MOTION_DDOT></tleParameters></data></segment></body></omm>
<omm id="CCSDS_OMM_VERS" version="2.0">
<header><CREATION_DATE/><ORIGINATOR/></header><body><segment><metadata><OBJECT_NAME>ONEWEB-0608</OBJECT_NAME><OBJECT_ID>2022-166AG</OBJECT_ID><CENTER_NAME>EARTH</CENTER_NAME><REF_FRAME>TEME</REF_FRAME><TIME_SYSTEM>UTC</TIME_SYSTEM><MEAN_ELEMENT_THEORY>SGP4</MEAN_ELEMENT_THEORY></metadata><data><meanElements><EPOCH>2024-04-07T20:52:06.595392</EPOCH><MEAN_MOTION>13.21825542</MEAN_MOTION><ECCENTRICITY>.0002542</ECCENTRICITY><INCLINATION>87.9300</INCLINATION><RA_OF_ASC_NODE>43.2698</RA_OF_ASC_NODE><ARG_OF_PERICENTER>71.7971</ARG_OF_PERICENTER><MEAN_ANOMALY>288.3440</MEAN_ANOMALY></meanElements><tleParameters><EPHEMERIS_TYPE>0</EPHEMERIS_TYPE><CLASSIFICATION_TYPE>U</CLASSIFICATION_TYPE><NORAD_CAT_ID>54672</NORAD_CAT_ID><ELEMENT_SET_NO>999</ELEMENT_SET_NO><REV_AT_EPOCH>6628</REV_AT_EPOCH><BSTAR>.12938E-3</BSTAR><MEAN_MOTION_DOT>.66E-6</MEAN_MOTION_DOT><MEAN_MOTION_DDOT>0</MEAN_MOTION_DDOT></tleParameters></data></segment></body></omm>
<omm id="CCSDS_OMM_VERS" version="2.0">
<header><CREATION_DATE/><ORIGINATOR/></header><body><segment><metadata><OBJECT_NAME>ONEWEB-0610</OBJECT_NAME><OBJECT_ID>2022-166AH</OBJECT_ID><CENTER_NAME>EARTH</CENTER_NAME><REF_FRAME>TEME</REF_FRAME><TIME_SYSTEM>UTC</TIME_SYSTEM><MEAN_ELEMENT_THEORY>SGP4</MEAN_ELEMENT_THEORY></metadata><data><meanElements><EPOCH>2024-04-07T13:08:51.876096</EPOCH><MEAN_MOTION>13.21826135</MEAN_MOTION><ECCENTRICITY>.000241</ECCENTRICITY><INCLINATION>87.9295</INCLINATION><RA_OF_ASC_NODE>43.3321</RA_OF_ASC_NODE><ARG_OF_PERICENTER>73.9906</ARG_OF_PERICENTER><MEAN_ANOMALY>286.1493</MEAN_ANOMALY></meanElements><tleParameters><EPHEMERIS_TYPE>0</EPHEMERIS_TYPE><CLASSIFICATION_TYPE>U</CLASSIFICATION_TYPE><NORAD_CAT_ID>54673</NORAD_CAT_ID><ELEMENT_SET_NO>999</ELEMENT_SET_NO><REV_AT_EPOCH>6568</REV_AT_EPOCH><BSTAR>.13533E-3</BSTAR><MEAN_MOTION_DOT>.69E-6</MEAN_MOTION_DOT><MEAN_MOTION_DDOT>0</MEAN_MOTION_DDOT></tleParameters></data></segment></body></omm>

</ndm>
